{"fetched_at":"2026-07-23T17:55:11.690Z","source":"https://celestrak.org/NORAD/elements/gp.php?GROUP=qianfan&FORMAT=JSON","constellation":"qianfan","records":[{"OBJECT_NAME":"QIANFAN-193","OBJECT_ID":"2026-125L","EPOCH":"2026-07-22T20:28:02.927424","CLASSIFICATION_TYPE":"U","MEAN_MOTION":13.81314787,"ECCENTRICITY":0.00262349,"INCLINATION":88.9932,"RA_OF_ASC_NODE":276.4424,"ARG_OF_PERICENTER":61.0532,"MEAN_ANOMALY":299.3263,"EPHEMERIS_TYPE":0,"NORAD_CAT_ID":69411,"ELEMENT_SET_NO":999,"REV_AT_EPOCH":673,"BSTAR":-2.0433756,"MEAN_MOTION_DOT":-0.02027284,"MEAN_MOTION_DDOT":0},{"OBJECT_NAME":"QIANFAN-194","OBJECT_ID":"2026-125M","EPOCH":"2026-07-22T15:01:32.350368","CLASSIFICATION_TYPE":"U","MEAN_MOTION":13.83199048,"ECCENTRICITY":0.00185972,"INCLINATION":88.9941,"RA_OF_ASC_NODE":276.4635,"ARG_OF_PERICENTER":74.4928,"MEAN_ANOMALY":285.8293,"EPHEMERIS_TYPE":0,"NORAD_CAT_ID":69412,"ELEMENT_SET_NO":999,"REV_AT_EPOCH":669,"BSTAR":-1.7722737,"MEAN_MOTION_DOT":-0.01806639,"MEAN_MOTION_DDOT":0},{"OBJECT_NAME":"QIANFAN-195","OBJECT_ID":"2026-125N","EPOCH":"2026-07-22T20:54:18.215424","CLASSIFICATION_TYPE":"U","MEAN_MOTION":13.85491219,"ECCENTRICITY":0.00215059,"INCLINATION":88.9932,"RA_OF_ASC_NODE":276.4267,"ARG_OF_PERICENTER":61.4686,"MEAN_ANOMALY":298.8647,"EPHEMERIS_TYPE":0,"NORAD_CAT_ID":69413,"ELEMENT_SET_NO":999,"REV_AT_EPOCH":674,"BSTAR":-1.8247563,"MEAN_MOTION_DOT":-0.01946775,"MEAN_MOTION_DDOT":0},{"OBJECT_NAME":"QIANFAN-196","OBJECT_ID":"2026-125P","EPOCH":"2026-07-22T19:26:04.476192","CLASSIFICATION_TYPE":"U","MEAN_MOTION":13.82851151,"ECCENTRICITY":0.00273229,"INCLINATION":88.994,"RA_OF_ASC_NODE":276.4352,"ARG_OF_PERICENTER":63.3181,"MEAN_ANOMALY":297.0781,"EPHEMERIS_TYPE":0,"NORAD_CAT_ID":69414,"ELEMENT_SET_NO":999,"REV_AT_EPOCH":673,"BSTAR":-1.906674,"MEAN_MOTION_DOT":-0.01947145,"MEAN_MOTION_DDOT":0},{"OBJECT_NAME":"QIANFAN-197","OBJECT_ID":"2026-125Q","EPOCH":"2026-07-22T20:44:33.252864","CLASSIFICATION_TYPE":"U","MEAN_MOTION":13.8611929,"ECCENTRICITY":0.00188531,"INCLINATION":88.9935,"RA_OF_ASC_NODE":276.4256,"ARG_OF_PERICENTER":60.9875,"MEAN_ANOMALY":299.3183,"EPHEMERIS_TYPE":0,"NORAD_CAT_ID":69415,"ELEMENT_SET_NO":999,"REV_AT_EPOCH":673,"BSTAR":-1.7758089,"MEAN_MOTION_DOT":-0.01916172,"MEAN_MOTION_DDOT":0},{"OBJECT_NAME":"QIANFAN-198","OBJECT_ID":"2026-125R","EPOCH":"2026-07-22T21:06:20.230848","CLASSIFICATION_TYPE":"U","MEAN_MOTION":13.84512221,"ECCENTRICITY":0.00226994,"INCLINATION":88.9936,"RA_OF_ASC_NODE":276.4277,"ARG_OF_PERICENTER":57.3489,"MEAN_ANOMALY":302.9868,"EPHEMERIS_TYPE":0,"NORAD_CAT_ID":69416,"ELEMENT_SET_NO":999,"REV_AT_EPOCH":674,"BSTAR":-1.9114132,"MEAN_MOTION_DOT":-0.02002132,"MEAN_MOTION_DDOT":0},{"OBJECT_NAME":"QIANFAN-199","OBJECT_ID":"2026-125S","EPOCH":"2026-07-22T21:07:09.165216","CLASSIFICATION_TYPE":"U","MEAN_MOTION":13.88600863,"ECCENTRICITY":0.00166841,"INCLINATION":88.994,"RA_OF_ASC_NODE":276.4108,"ARG_OF_PERICENTER":48.3148,"MEAN_ANOMALY":311.9449,"EPHEMERIS_TYPE":0,"NORAD_CAT_ID":69417,"ELEMENT_SET_NO":999,"REV_AT_EPOCH":675,"BSTAR":-1.7251341,"MEAN_MOTION_DOT":-0.01940023,"MEAN_MOTION_DDOT":0},{"OBJECT_NAME":"QIANFAN-200","OBJECT_ID":"2026-125T","EPOCH":"2026-07-22T21:10:58.964160","CLASSIFICATION_TYPE":"U","MEAN_MOTION":13.80225693,"ECCENTRICITY":0.00243597,"INCLINATION":88.9938,"RA_OF_ASC_NODE":276.4456,"ARG_OF_PERICENTER":60.9539,"MEAN_ANOMALY":299.4065,"EPHEMERIS_TYPE":0,"NORAD_CAT_ID":69418,"ELEMENT_SET_NO":999,"REV_AT_EPOCH":673,"BSTAR":-1.9833029,"MEAN_MOTION_DOT":-0.01937233,"MEAN_MOTION_DDOT":0},{"OBJECT_NAME":"QIANFAN-201","OBJECT_ID":"2026-153A","EPOCH":"2026-07-23T06:06:34.741728","CLASSIFICATION_TYPE":"U","MEAN_MOTION":14.22096243,"ECCENTRICITY":0.00086653,"INCLINATION":88.9931,"RA_OF_ASC_NODE":358.1199,"ARG_OF_PERICENTER":151.9972,"MEAN_ANOMALY":208.1687,"EPHEMERIS_TYPE":0,"NORAD_CAT_ID":69800,"ELEMENT_SET_NO":999,"REV_AT_EPOCH":269,"BSTAR":0.00014730002,"MEAN_MOTION_DOT":0.0000034,"MEAN_MOTION_DDOT":0},{"OBJECT_NAME":"QIANFAN-202","OBJECT_ID":"2026-153B","EPOCH":"2026-07-23T05:19:45.074208","CLASSIFICATION_TYPE":"U","MEAN_MOTION":14.18845442,"ECCENTRICITY":0.00076393,"INCLINATION":88.9931,"RA_OF_ASC_NODE":358.1338,"ARG_OF_PERICENTER":151.5595,"MEAN_ANOMALY":208.6013,"EPHEMERIS_TYPE":0,"NORAD_CAT_ID":69801,"ELEMENT_SET_NO":999,"REV_AT_EPOCH":268,"BSTAR":0.000088509248,"MEAN_MOTION_DOT":0.00000198,"MEAN_MOTION_DDOT":0},{"OBJECT_NAME":"QIANFAN-203","OBJECT_ID":"2026-153C","EPOCH":"2026-07-23T05:04:15.709152","CLASSIFICATION_TYPE":"U","MEAN_MOTION":14.19389774,"ECCENTRICITY":0.00082067,"INCLINATION":88.993,"RA_OF_ASC_NODE":358.1321,"ARG_OF_PERICENTER":153.3427,"MEAN_ANOMALY":206.8187,"EPHEMERIS_TYPE":0,"NORAD_CAT_ID":69802,"ELEMENT_SET_NO":999,"REV_AT_EPOCH":268,"BSTAR":0.000057534442,"MEAN_MOTION_DOT":0.00000135,"MEAN_MOTION_DDOT":0},{"OBJECT_NAME":"QIANFAN-204","OBJECT_ID":"2026-153D","EPOCH":"2026-07-23T05:07:23.265408","CLASSIFICATION_TYPE":"U","MEAN_MOTION":14.201158,"ECCENTRICITY":0.00086108,"INCLINATION":88.9931,"RA_OF_ASC_NODE":358.1325,"ARG_OF_PERICENTER":154.5412,"MEAN_ANOMALY":205.6204,"EPHEMERIS_TYPE":0,"NORAD_CAT_ID":69803,"ELEMENT_SET_NO":999,"REV_AT_EPOCH":268,"BSTAR":0.000068014759,"MEAN_MOTION_DOT":0.00000159,"MEAN_MOTION_DDOT":0},{"OBJECT_NAME":"QIANFAN-205","OBJECT_ID":"2026-153E","EPOCH":"2026-07-23T05:05:52.865088","CLASSIFICATION_TYPE":"U","MEAN_MOTION":14.18483042,"ECCENTRICITY":0.00084762,"INCLINATION":88.993,"RA_OF_ASC_NODE":358.132,"ARG_OF_PERICENTER":152.2213,"MEAN_ANOMALY":207.9431,"EPHEMERIS_TYPE":0,"NORAD_CAT_ID":69804,"ELEMENT_SET_NO":999,"REV_AT_EPOCH":268,"BSTAR":0.00005843489,"MEAN_MOTION_DOT":0.00000135,"MEAN_MOTION_DDOT":0},{"OBJECT_NAME":"QIANFAN-206","OBJECT_ID":"2026-153F","EPOCH":"2026-07-23T06:27:28.570752","CLASSIFICATION_TYPE":"U","MEAN_MOTION":14.18783176,"ECCENTRICITY":0.00086854,"INCLINATION":88.993,"RA_OF_ASC_NODE":358.122,"ARG_OF_PERICENTER":153.3644,"MEAN_ANOMALY":206.7993,"EPHEMERIS_TYPE":0,"NORAD_CAT_ID":69805,"ELEMENT_SET_NO":999,"REV_AT_EPOCH":269,"BSTAR":0.000037120144,"MEAN_MOTION_DOT":9.2e-7,"MEAN_MOTION_DDOT":0},{"OBJECT_NAME":"QIANFAN-207","OBJECT_ID":"2026-153G","EPOCH":"2026-07-23T06:20:50.156160","CLASSIFICATION_TYPE":"U","MEAN_MOTION":14.19832088,"ECCENTRICITY":0.00082709,"INCLINATION":88.993,"RA_OF_ASC_NODE":358.1214,"ARG_OF_PERICENTER":150.5411,"MEAN_ANOMALY":209.6246,"EPHEMERIS_TYPE":0,"NORAD_CAT_ID":69806,"ELEMENT_SET_NO":999,"REV_AT_EPOCH":269,"BSTAR":0.000078779254,"MEAN_MOTION_DOT":0.00000181,"MEAN_MOTION_DDOT":0},{"OBJECT_NAME":"QIANFAN-208","OBJECT_ID":"2026-153H","EPOCH":"2026-07-23T06:05:10.531104","CLASSIFICATION_TYPE":"U","MEAN_MOTION":14.22846963,"ECCENTRICITY":0.0009337,"INCLINATION":88.993,"RA_OF_ASC_NODE":358.1196,"ARG_OF_PERICENTER":155.8139,"MEAN_ANOMALY":204.3493,"EPHEMERIS_TYPE":0,"NORAD_CAT_ID":69807,"ELEMENT_SET_NO":999,"REV_AT_EPOCH":269,"BSTAR":0.000052697216,"MEAN_MOTION_DOT":0.00000133,"MEAN_MOTION_DDOT":0}]}
