QIANFAN-193             
1 69411U 26125L   26203.85281166 -.02027284  00000+0 -20434+1 0  9996
2 69411  88.9932 276.4424 0026234  61.0532 299.3263 13.81314787  6738
QIANFAN-194             
1 69412U 26125M   26203.62606887 -.01806639  00000+0 -17723+1 0  9998
2 69412  88.9941 276.4635 0018597  74.4928 285.8293 13.83199048  6694
QIANFAN-195             
1 69413U 26125N   26203.87104416 -.01946775  00000+0 -18248+1 0  9996
2 69413  88.9932 276.4267 0021505  61.4686 298.8647 13.85491219  6746
QIANFAN-196             
1 69414U 26125P   26203.80977403 -.01947145  00000+0 -19067+1 0  9996
2 69414  88.9940 276.4352 0027322  63.3181 297.0781 13.82851151  6736
QIANFAN-197             
1 69415U 26125Q   26203.86427376 -.01916172  00000+0 -17758+1 0  9993
2 69415  88.9935 276.4256 0018853  60.9875 299.3183 13.86119290  6732
QIANFAN-198             
1 69416U 26125R   26203.87940082 -.02002132  00000+0 -19114+1 0  9990
2 69416  88.9936 276.4277 0022699  57.3489 302.9868 13.84512221  6742
QIANFAN-199             
1 69417U 26125S   26203.87996719 -.01940023  00000+0 -17251+1 0  9998
2 69417  88.9940 276.4108 0016684  48.3148 311.9449 13.88600863  6750
QIANFAN-200             
1 69418U 26125T   26203.88262690 -.01937233  00000+0 -19833+1 0  9991
2 69418  88.9938 276.4456 0024359  60.9539 299.4065 13.80225693  6734
QIANFAN-201             
1 69800U 26153A   26204.25456877  .00000340  00000+0  14730-3 0  9992
2 69800  88.9931 358.1199 0008665 151.9972 208.1687 14.22096243  2690
QIANFAN-202             
1 69801U 26153B   26204.22204947  .00000198  00000+0  88509-4 0  9996
2 69801  88.9931 358.1338 0007639 151.5595 208.6013 14.18845442  2688
QIANFAN-203             
1 69802U 26153C   26204.21129293  .00000135  00000+0  57534-4 0  9991
2 69802  88.9930 358.1321 0008206 153.3427 206.8187 14.19389774  2689
QIANFAN-204             
1 69803U 26153D   26204.21346372  .00000159  00000+0  68015-4 0  9993
2 69803  88.9931 358.1325 0008610 154.5412 205.6204 14.20115800  2687
QIANFAN-205             
1 69804U 26153E   26204.21241742  .00000135  00000+0  58435-4 0  9998
2 69804  88.9930 358.1320 0008476 152.2213 207.9431 14.18483042  2686
QIANFAN-206             
1 69805U 26153F   26204.26908068  .00000092  00000+0  37120-4 0  9995
2 69805  88.9930 358.1220 0008685 153.3644 206.7993 14.18783176  2690
QIANFAN-207             
1 69806U 26153G   26204.26446940  .00000181  00000+0  78779-4 0  9996
2 69806  88.9930 358.1214 0008270 150.5411 209.6246 14.19832088  2696
QIANFAN-208             
1 69807U 26153H   26204.25359411  .00000133  00000+0  52697-4 0  9990
2 69807  88.9930 358.1196 0009337 155.8139 204.3493 14.22846963  2693
